{"type": "FeatureCollection", "features": [{"type": "Feature", "geometry": {"type": "Polygon", "coordinates": [[[-76.0506429, 1.8049277], [-76.0499254, 1.8049143], [-76.0494583, 1.8054023], [-76.0494751, 1.8060859], [-76.050109, 1.8064175], [-76.0506882, 1.8061701], [-76.0509634, 1.8055806], [-76.0506429, 1.8049277]]]}, "properties": {"ProductionPlace": "HU-001", "Area": 2.09, "ProducerCountry": "CO"}}, {"type": "Feature", "geometry": {"type": "Polygon", "coordinates": [[[-75.369774, 2.4934319], [-75.3693847, 2.4940171], [-75.3695675, 2.494653], [-75.3704031, 2.4951699], [-75.370892, 2.4947821], [-75.3710165, 2.493834], [-75.3705783, 2.493292], [-75.369774, 2.4934319]]]}, "properties": {"ProductionPlace": "HU-002", "Area": 2.76, "ProducerCountry": "CO"}}, {"type": "Feature", "geometry": {"type": "Polygon", "coordinates": [[[-75.9716251, 2.6135321], [-75.9719649, 2.6140876], [-75.9728667, 2.6140986], [-75.973202, 2.6134176], [-75.9730305, 2.6127271], [-75.9721591, 2.6126677], [-75.9716976, 2.6130413], [-75.9716251, 2.6135321]]]}, "properties": {"ProductionPlace": "HU-003", "Area": 2.44, "ProducerCountry": "CO"}}, {"type": "Feature", "geometry": {"type": "Polygon", "coordinates": [[[-76.0037023, 1.7208679], [-76.0030157, 1.7209972], [-76.0024917, 1.7218412], [-76.0028575, 1.722424], [-76.0034302, 1.7225336], [-76.0041118, 1.7222001], [-76.0041345, 1.721432], [-76.0037023, 1.7208679]]]}, "properties": {"ProductionPlace": "HU-004", "Area": 2.41, "ProducerCountry": "CO"}}, {"type": "Feature", "geometry": {"type": "Polygon", "coordinates": [[[-75.4362022, 2.5816303], [-75.4359594, 2.580994], [-75.4353755, 2.5808065], [-75.434908, 2.5811884], [-75.4348174, 2.581613], [-75.4352637, 2.5822329], [-75.4356756, 2.5822312], [-75.4362022, 2.5816303]]]}, "properties": {"ProductionPlace": "HU-005", "Area": 1.72, "ProducerCountry": "CO"}}, {"type": "Feature", "geometry": {"type": "Polygon", "coordinates": [[[-76.2339353, 1.9596945], [-76.2347483, 1.9593309], [-76.234667, 1.9587062], [-76.2343376, 1.958262], [-76.2337553, 1.9582372], [-76.2332202, 1.9589222], [-76.2332595, 1.9593085], [-76.2339353, 1.9596945]]]}, "properties": {"ProductionPlace": "HU-006", "Area": 2.27, "ProducerCountry": "CO"}}, {"type": "Feature", "geometry": {"type": "Polygon", "coordinates": [[[-75.7675933, 2.3197783], [-75.7671061, 2.3194229], [-75.7663046, 2.319563], [-75.7657908, 2.3201553], [-75.7662375, 2.3210709], [-75.7668253, 2.3212954], [-75.7675577, 2.3206014], [-75.7675933, 2.3197783]]]}, "properties": {"ProductionPlace": "HU-007", "Area": 3.0, "ProducerCountry": "CO"}}, {"type": "Feature", "geometry": {"type": "Polygon", "coordinates": [[[-75.4890659, 2.6468626], [-75.489771, 2.6471751], [-75.4904133, 2.6469749], [-75.4907922, 2.6460414], [-75.4900686, 2.6452852], [-75.4891949, 2.6453569], [-75.4888717, 2.645914], [-75.4890659, 2.6468626]]]}, "properties": {"ProductionPlace": "HU-008", "Area": 3.26, "ProducerCountry": "CO"}}, {"type": "Feature", "geometry": {"type": "Polygon", "coordinates": [[[-75.938345, 2.0287802], [-75.9382486, 2.0292884], [-75.9386295, 2.0297665], [-75.9389334, 2.0297578], [-75.9394613, 2.0294418], [-75.9394728, 2.02898], [-75.9390312, 2.0286027], [-75.938345, 2.0287802]]]}, "properties": {"ProductionPlace": "HU-009", "Area": 1.32, "ProducerCountry": "CO"}}, {"type": "Feature", "geometry": {"type": "Polygon", "coordinates": [[[-75.9060927, 2.4488008], [-75.9069582, 2.4488487], [-75.9075079, 2.4479134], [-75.9073169, 2.4473219], [-75.9062173, 2.4470734], [-75.9057122, 2.447512], [-75.9058152, 2.4483441], [-75.9060927, 2.4488008]]]}, "properties": {"ProductionPlace": "HU-010", "Area": 2.85, "ProducerCountry": "CO"}}, {"type": "Feature", "geometry": {"type": "Polygon", "coordinates": [[[-76.3370786, 2.3060446], [-76.3374365, 2.3054093], [-76.3373497, 2.3049578], [-76.3368157, 2.3046201], [-76.3359859, 2.304929], [-76.3358973, 2.3055325], [-76.3363295, 2.3061354], [-76.3370786, 2.3060446]]]}, "properties": {"ProductionPlace": "HU-011", "Area": 2.12, "ProducerCountry": "CO"}}, {"type": "Feature", "geometry": {"type": "Polygon", "coordinates": [[[-75.8235664, 1.9066602], [-75.8227429, 1.9072341], [-75.822815, 1.9079521], [-75.8233537, 1.9083897], [-75.8240093, 1.9081369], [-75.8243423, 1.90746], [-75.8240893, 1.9068456], [-75.8235664, 1.9066602]]]}, "properties": {"ProductionPlace": "HU-012", "Area": 2.19, "ProducerCountry": "CO"}}, {"type": "Feature", "geometry": {"type": "Polygon", "coordinates": [[[-76.319312, 2.5911732], [-76.3188074, 2.5915333], [-76.3187494, 2.5918428], [-76.3191254, 2.5922474], [-76.3198258, 2.5921766], [-76.3200013, 2.5916534], [-76.3199043, 2.5913292], [-76.319312, 2.5911732]]]}, "properties": {"ProductionPlace": "HU-013", "Area": 1.3, "ProducerCountry": "CO"}}, {"type": "Feature", "geometry": {"type": "Polygon", "coordinates": [[[-75.4227892, 2.6176437], [-75.4233056, 2.6171804], [-75.4232117, 2.6164063], [-75.4225902, 2.6160155], [-75.4217761, 2.6161911], [-75.4216283, 2.6171363], [-75.4221764, 2.6177396], [-75.4227892, 2.6176437]]]}, "properties": {"ProductionPlace": "HU-014", "Area": 2.61, "ProducerCountry": "CO"}}, {"type": "Feature", "geometry": {"type": "Polygon", "coordinates": [[[-75.6721759, 2.5779179], [-75.6725576, 2.5779706], [-75.6729189, 2.5776705], [-75.6729047, 2.5773018], [-75.6725873, 2.5770245], [-75.672073, 2.5771364], [-75.6719778, 2.5775315], [-75.6721759, 2.5779179]]]}, "properties": {"ProductionPlace": "HU-015", "Area": 0.76, "ProducerCountry": "CO"}}, {"type": "Feature", "geometry": {"type": "Polygon", "coordinates": [[[-75.9932413, 2.6393251], [-75.9939999, 2.6395801], [-75.9945047, 2.6392382], [-75.9944803, 2.6384368], [-75.9941821, 2.6381685], [-75.9933006, 2.638269], [-75.9931025, 2.6388281], [-75.9932413, 2.6393251]]]}, "properties": {"ProductionPlace": "HU-016", "Area": 1.97, "ProducerCountry": "CO"}}, {"type": "Feature", "geometry": {"type": "Polygon", "coordinates": [[[-75.7805808, 2.1336596], [-75.7809711, 2.1338498], [-75.78178, 2.1335131], [-75.7818229, 2.1328343], [-75.7815308, 2.132376], [-75.7807372, 2.1323251], [-75.7802535, 2.1328603], [-75.7805808, 2.1336596]]]}, "properties": {"ProductionPlace": "HU-017", "Area": 2.24, "ProducerCountry": "CO"}}, {"type": "Feature", "geometry": {"type": "Polygon", "coordinates": [[[-75.7369501, 2.2961758], [-75.7368275, 2.2958986], [-75.7363648, 2.295665], [-75.7360452, 2.2959499], [-75.7360678, 2.2964915], [-75.7363566, 2.2966319], [-75.7368303, 2.2965257], [-75.7369501, 2.2961758]]]}, "properties": {"ProductionPlace": "HU-018", "Area": 0.83, "ProducerCountry": "CO"}}, {"type": "Feature", "geometry": {"type": "Polygon", "coordinates": [[[-76.0531223, 2.2487417], [-76.053188, 2.2484227], [-76.0530646, 2.2481502], [-76.0525568, 2.2481376], [-76.0522778, 2.2483904], [-76.0523723, 2.2488344], [-76.0527268, 2.2489935], [-76.0531223, 2.2487417]]]}, "properties": {"ProductionPlace": "HU-019", "Area": 0.69, "ProducerCountry": "CO"}}, {"type": "Feature", "geometry": {"type": "Polygon", "coordinates": [[[-75.4974245, 2.5606493], [-75.4965766, 2.5611745], [-75.4965557, 2.561809], [-75.4970149, 2.5623269], [-75.4976088, 2.5622932], [-75.4981501, 2.561591], [-75.4980757, 2.5609963], [-75.4974245, 2.5606493]]]}, "properties": {"ProductionPlace": "HU-020", "Area": 2.51, "ProducerCountry": "CO"}}, {"type": "Feature", "geometry": {"type": "Polygon", "coordinates": [[[-75.704618, 2.4154665], [-75.704859, 2.4161176], [-75.7057114, 2.4164408], [-75.7062455, 2.4161013], [-75.706329, 2.4155316], [-75.7058347, 2.4148462], [-75.7049338, 2.4150562], [-75.704618, 2.4154665]]]}, "properties": {"ProductionPlace": "HU-021", "Area": 2.32, "ProducerCountry": "CO"}}, {"type": "Feature", "geometry": {"type": "Polygon", "coordinates": [[[-76.1024792, 2.2951648], [-76.1018451, 2.2953108], [-76.1015675, 2.2955452], [-76.1016772, 2.2961775], [-76.1020381, 2.2964756], [-76.102707, 2.2962553], [-76.1028931, 2.2956576], [-76.1024792, 2.2951648]]]}, "properties": {"ProductionPlace": "HU-022", "Area": 1.4, "ProducerCountry": "CO"}}, {"type": "Feature", "geometry": {"type": "Polygon", "coordinates": [[[-76.0586733, 2.4829191], [-76.0585486, 2.4824107], [-76.0582266, 2.4821973], [-76.0577978, 2.4822382], [-76.0574953, 2.482905], [-76.0576776, 2.483244], [-76.0580872, 2.4834196], [-76.0586733, 2.4829191]]]}, "properties": {"ProductionPlace": "HU-023", "Area": 1.14, "ProducerCountry": "CO"}}, {"type": "Feature", "geometry": {"type": "Polygon", "coordinates": [[[-75.776218, 2.5164616], [-75.7760338, 2.5172458], [-75.7763454, 2.5179363], [-75.7772592, 2.5179585], [-75.777826, 2.5171992], [-75.7777456, 2.5167091], [-75.7767318, 2.5162274], [-75.776218, 2.5164616]]]}, "properties": {"ProductionPlace": "HU-024", "Area": 2.81, "ProducerCountry": "CO"}}, {"type": "Feature", "geometry": {"type": "Polygon", "coordinates": [[[-76.1727471, 1.8536105], [-76.1724546, 1.8533611], [-76.1717349, 1.853471], [-76.1715993, 1.8539441], [-76.1717662, 1.8544916], [-76.17251, 1.8545149], [-76.1728265, 1.8541524], [-76.1727471, 1.8536105]]]}, "properties": {"ProductionPlace": "HU-025", "Area": 1.56, "ProducerCountry": "CO"}}, {"type": "Feature", "geometry": {"type": "Polygon", "coordinates": [[[-75.5904653, 2.6497895], [-75.589609, 2.6499516], [-75.5893298, 2.6503203], [-75.5896801, 2.6513238], [-75.5904551, 2.6514903], [-75.5909773, 2.6510246], [-75.5910172, 2.6501393], [-75.5904653, 2.6497895]]]}, "properties": {"ProductionPlace": "HU-026", "Area": 2.87, "ProducerCountry": "CO"}}, {"type": "Feature", "geometry": {"type": "Polygon", "coordinates": [[[-76.1502021, 2.0099125], [-76.1499282, 2.0096457], [-76.1494437, 2.0097835], [-76.1492375, 2.0102346], [-76.1494068, 2.0105504], [-76.1498448, 2.0107537], [-76.1502976, 2.0103994], [-76.1502021, 2.0099125]]]}, "properties": {"ProductionPlace": "HU-027", "Area": 0.95, "ProducerCountry": "CO"}}, {"type": "Feature", "geometry": {"type": "Polygon", "coordinates": [[[-76.0679418, 2.6263258], [-76.06784, 2.6256045], [-76.0673188, 2.6253032], [-76.0663713, 2.6256245], [-76.0660387, 2.6260882], [-76.066687, 2.6269346], [-76.0671268, 2.627096], [-76.0679418, 2.6263258]]]}, "properties": {"ProductionPlace": "HU-028", "Area": 2.83, "ProducerCountry": "CO"}}, {"type": "Feature", "geometry": {"type": "Polygon", "coordinates": [[[-75.588917, 2.414178], [-75.5886162, 2.4147327], [-75.5889012, 2.4152673], [-75.589366, 2.4154528], [-75.5900405, 2.4149123], [-75.5899682, 2.4143901], [-75.5896663, 2.4140954], [-75.588917, 2.414178]]]}, "properties": {"ProductionPlace": "HU-029", "Area": 1.76, "ProducerCountry": "CO"}}, {"type": "Feature", "geometry": {"type": "Polygon", "coordinates": [[[-76.3130166, 1.8803625], [-76.312892, 1.8812129], [-76.3131509, 1.8816232], [-76.3139324, 1.8817583], [-76.3144393, 1.8813564], [-76.3143623, 1.8804509], [-76.3138284, 1.8801717], [-76.3130166, 1.8803625]]]}, "properties": {"ProductionPlace": "HU-030", "Area": 2.45, "ProducerCountry": "CO"}}, {"type": "Feature", "geometry": {"type": "Polygon", "coordinates": [[[-75.9627188, 2.6797718], [-75.962543, 2.6792117], [-75.9619614, 2.6786572], [-75.9610783, 2.679238], [-75.9609398, 2.6797079], [-75.961693, 2.6803474], [-75.9623259, 2.680325], [-75.9627188, 2.6797718]]]}, "properties": {"ProductionPlace": "HU-031", "Area": 2.51, "ProducerCountry": "CO"}}, {"type": "Feature", "geometry": {"type": "Polygon", "coordinates": [[[-76.0228116, 2.6806756], [-76.0233966, 2.6814049], [-76.0242328, 2.6812941], [-76.0246866, 2.6806212], [-76.0243407, 2.6798396], [-76.0235073, 2.6795965], [-76.0229901, 2.6798813], [-76.0228116, 2.6806756]]]}, "properties": {"ProductionPlace": "HU-032", "Area": 2.98, "ProducerCountry": "CO"}}, {"type": "Feature", "geometry": {"type": "Polygon", "coordinates": [[[-75.9774232, 2.5137423], [-75.9777016, 2.5132549], [-75.9774684, 2.5129129], [-75.9768401, 2.5128544], [-75.9766599, 2.5130229], [-75.97667, 2.5135713], [-75.9770224, 2.5138832], [-75.9774232, 2.5137423]]]}, "properties": {"ProductionPlace": "HU-033", "Area": 1.04, "ProducerCountry": "CO"}}, {"type": "Feature", "geometry": {"type": "Polygon", "coordinates": [[[-76.2794217, 1.8753139], [-76.279778, 1.8758881], [-76.2805387, 1.8759448], [-76.2809986, 1.875429], [-76.2807401, 1.8747264], [-76.2802699, 1.8744598], [-76.2796408, 1.8746287], [-76.2794217, 1.8753139]]]}, "properties": {"ProductionPlace": "HU-034", "Area": 2.08, "ProducerCountry": "CO"}}, {"type": "Feature", "geometry": {"type": "Point", "coordinates": [-76.28915, 2.585125]}, "properties": {"ProductionPlace": "HU-P01", "Area": 2.9, "ProducerCountry": "CO"}}, {"type": "Feature", "geometry": {"type": "Point", "coordinates": [-75.47074, 2.615856]}, "properties": {"ProductionPlace": "HU-P02", "Area": 2.14, "ProducerCountry": "CO"}}, {"type": "Feature", "geometry": {"type": "Point", "coordinates": [-75.95586, 2.408328]}, "properties": {"ProductionPlace": "HU-P03", "Area": 3.08, "ProducerCountry": "CO"}}, {"type": "Feature", "geometry": {"type": "Point", "coordinates": [-75.939538, 1.948022]}, "properties": {"ProductionPlace": "HU-P04", "Area": 3.0, "ProducerCountry": "CO"}}, {"type": "Feature", "geometry": {"type": "Point", "coordinates": [-76.219989, 1.74694]}, "properties": {"ProductionPlace": "HU-P05", "Area": 2.77, "ProducerCountry": "CO"}}, {"type": "Feature", "geometry": {"type": "Point", "coordinates": [-75.508844, 2.49575]}, "properties": {"ProductionPlace": "HU-P06", "Area": 3.39, "ProducerCountry": "CO"}}, {"type": "Feature", "geometry": {"type": "Point", "coordinates": [-75.621024, 2.624495]}, "properties": {"ProductionPlace": "HU-P07", "Area": 0.62, "ProducerCountry": "CO"}}, {"type": "Feature", "geometry": {"type": "Point", "coordinates": [-75.66634, 2.558775]}, "properties": {"ProductionPlace": "HU-P08", "Area": 2.09, "ProducerCountry": "CO"}}, {"type": "Feature", "geometry": {"type": "Point", "coordinates": [-76.006139, 2.505283]}, "properties": {"ProductionPlace": "HU-P09", "Area": 1.42, "ProducerCountry": "CO"}}, {"type": "Feature", "geometry": {"type": "Point", "coordinates": [-75.645984, 2.448803]}, "properties": {"ProductionPlace": "HU-P10", "Area": 2.13, "ProducerCountry": "CO"}}, {"type": "Feature", "geometry": {"type": "Point", "coordinates": [-75.930008, 2.478173]}, "properties": {"ProductionPlace": "HU-P11", "Area": 1.31, "ProducerCountry": "CO"}}, {"type": "Feature", "geometry": {"type": "Point", "coordinates": [-75.652999, 2.713462]}, "properties": {"ProductionPlace": "HU-P12", "Area": 3.12, "ProducerCountry": "CO"}}, {"type": "Feature", "geometry": {"type": "Point", "coordinates": [-75.826176, 2.316976]}, "properties": {"ProductionPlace": "HU-P13", "Area": 1.49, "ProducerCountry": "CO"}}, {"type": "Feature", "geometry": {"type": "Point", "coordinates": [-75.902848, 2.374743]}, "properties": {"ProductionPlace": "HU-P14", "Area": 2.04, "ProducerCountry": "CO"}}, {"type": "Feature", "geometry": {"type": "Point", "coordinates": [-75.540265, 2.555779]}, "properties": {"ProductionPlace": "HU-P15", "Area": 1.88, "ProducerCountry": "CO"}}, {"type": "Feature", "geometry": {"type": "Point", "coordinates": [-75.893711, 2.529682]}, "properties": {"ProductionPlace": "HU-P16", "Area": 2.09, "ProducerCountry": "CO"}}, {"type": "Feature", "geometry": {"type": "Polygon", "coordinates": [[[-75.5556938, 1.7139686], [-75.555945, 1.7145424], [-75.5562269, 1.7148083], [-75.5568461, 1.7146544], [-75.5570619, 1.7140854], [-75.5565687, 1.7134984], [-75.5561952, 1.713432], [-75.5556938, 1.7139686]]]}, "properties": {"ProductionPlace": "HU-L1", "Area": 1.5, "ProducerCountry": "CO"}}, {"type": "Feature", "geometry": {"type": "Polygon", "coordinates": [[[-75.5358899, 1.7686379], [-75.535883, 1.7683055], [-75.5353463, 1.7679017], [-75.5347442, 1.7682483], [-75.5346322, 1.7687178], [-75.5348554, 1.7691226], [-75.5354834, 1.769182], [-75.5358899, 1.7686379]]]}, "properties": {"ProductionPlace": "HU-L2", "Area": 1.5, "ProducerCountry": "CO"}}, {"type": "Feature", "geometry": {"type": "Polygon", "coordinates": [[[-75.537189, 1.7413357], [-75.5374006, 1.7416944], [-75.538026, 1.7417258], [-75.5383654, 1.7414748], [-75.5382902, 1.7407564], [-75.5377855, 1.7404729], [-75.5373166, 1.740599], [-75.537189, 1.7413357]]]}, "properties": {"ProductionPlace": "HU-L3", "Area": 1.5, "ProducerCountry": "CO"}}, {"type": "Feature", "geometry": {"type": "Polygon", "coordinates": [[[-76.3643151, 1.8382862], [-76.3638886, 1.8379352], [-76.3632484, 1.8381451], [-76.3631, 1.8386065], [-76.3632544, 1.8391357], [-76.3638718, 1.839252], [-76.3642936, 1.8389901], [-76.3643151, 1.8382862]]]}, "properties": {"ProductionPlace": "HU-L4", "Area": 1.5, "ProducerCountry": "CO"}}, {"type": "Feature", "geometry": {"type": "Polygon", "coordinates": [[[-75.8652679, 2.2918165], [-75.8648349, 2.2919013], [-75.8645591, 2.2927231], [-75.8648555, 2.2930582], [-75.8655557, 2.2931365], [-75.8658236, 2.2927107], [-75.8658108, 2.2921149], [-75.8652679, 2.2918165]]]}, "properties": {"ProductionPlace": "HU-N1", "Area": 1.5, "ProducerCountry": "CO"}}, {"type": "Feature", "geometry": {"type": "Polygon", "coordinates": [[[-75.9766252, 1.7811385], [-75.9764247, 1.780821], [-75.9757359, 1.780831], [-75.9754004, 1.781129], [-75.9754095, 1.7817309], [-75.9759953, 1.7820427], [-75.9765251, 1.7817499], [-75.9766252, 1.7811385]]]}, "properties": {"ProductionPlace": "HU-N2", "Area": 1.5, "ProducerCountry": "CO"}}, {"type": "Feature", "geometry": {"type": "Polygon", "coordinates": [[[-76.124247, 2.0907519], [-76.1239004, 2.0910875], [-76.1240631, 2.0917432], [-76.1245299, 2.0919185], [-76.1250277, 2.0915646], [-76.125061, 2.0910107], [-76.1246034, 2.0906844], [-76.124247, 2.0907519]]]}, "properties": {"ProductionPlace": "HU-F1", "Area": 1.2, "ProducerCountry": "CO"}}, {"type": "Feature", "geometry": {"type": "Polygon", "coordinates": [[[-75.789389, 1.7559906], [-75.789597, 1.7555432], [-75.7893988, 1.7550385], [-75.788868, 1.7550052], [-75.7885049, 1.7553165], [-75.7884637, 1.7556691], [-75.7889753, 1.7561189], [-75.789389, 1.7559906]]]}, "properties": {"ProductionPlace": "HU-F2", "Area": 1.2, "ProducerCountry": "CO"}}, {"type": "Feature", "geometry": {"type": "Point", "coordinates": [2.072237, -76.342815]}, "properties": {"ProductionPlace": "HU-S1", "Area": 1.2, "ProducerCountry": "CO"}}, {"type": "Feature", "geometry": {"type": "Point", "coordinates": [1.971703, -75.935167]}, "properties": {"ProductionPlace": "HU-S2", "Area": 2.0, "ProducerCountry": "CO"}}, {"type": "Feature", "geometry": {"type": "Polygon", "coordinates": [[[-75.80831092984903, 2.472736758220606], [-75.80711092984903, 2.473936758220606], [-75.80831092984903, 2.473936758220606], [-75.80711092984903, 2.472736758220606], [-75.80831092984903, 2.472736758220606]]]}, "properties": {"ProductionPlace": "HU-B1", "Area": 1.0, "ProducerCountry": "CO"}}, {"type": "Feature", "geometry": {"type": "Point", "coordinates": [-75.727, 2.318]}, "properties": {"ProductionPlace": "HU-R1", "Area": 1.0, "ProducerCountry": "CO"}}, {"type": "Feature", "geometry": {"type": "Point", "coordinates": [-76.222518, 2.540414]}, "properties": {"ProductionPlace": "HU-G1", "Area": 6.5, "ProducerCountry": "CO"}}, {"type": "Feature", "geometry": {"type": "Point", "coordinates": [-78.52, -0.21]}, "properties": {"ProductionPlace": "HU-X1", "Area": 1.0, "ProducerCountry": "CO"}}, {"type": "Feature", "geometry": {"type": "Polygon", "coordinates": [[[-75.7276553, 2.3736996], [-75.7276669, 2.3737315], [-75.7276819, 2.3737436], [-75.7277102, 2.3737298], [-75.7277131, 2.3736911], [-75.7277027, 2.3736799], [-75.7276701, 2.3736781], [-75.7276553, 2.3736996]]]}, "properties": {"ProductionPlace": "HU-T1", "Area": 0.4, "ProducerCountry": "CO"}}, {"type": "Feature", "geometry": {"type": "Polygon", "coordinates": [[[-76.0037023, 1.7208679], [-76.0030157, 1.7209972], [-76.0024917, 1.7218412], [-76.0028575, 1.722424], [-76.0034302, 1.7225336], [-76.0041118, 1.7222001], [-76.0041345, 1.721432], [-76.0037023, 1.7208679]]]}, "properties": {"ProductionPlace": "HU-D1", "Area": 2.41, "ProducerCountry": "CO"}}]}